{
  "norad_id": 64073,
  "name": "STARLINK-11729 [DTC]",
  "history": [
    {
      "epoch": "2026-03-28T01:41:04.815168Z",
      "apogee_km": 357.8567400803922,
      "perigee_km": 354.8577351065069,
      "latitude_deg": 3.6853461529406294e-05,
      "longitude_deg": 137.13585351634995,
      "height_km": 356.39178578042333,
      "semi_major_axis_km": 6734.49423759345,
      "eccentricity": 0.00022266,
      "inclination_deg": 43.0035,
      "raan_deg": 347.9018,
      "arg_perigee_deg": 259.971,
      "mean_anomaly_deg": 100.0907,
      "mean_motion_rev_day": 15.70888222
    },
    {
      "epoch": "2026-03-30T02:30:59.686272Z",
      "apogee_km": 357.54865276314104,
      "perigee_km": 355.297962708295,
      "latitude_deg": 2.6656500260713273e-05,
      "longitude_deg": 110.38755808796962,
      "height_km": 356.1129904073797,
      "semi_major_axis_km": 6734.560307735717,
      "eccentricity": 0.0001671,
      "inclination_deg": 42.9995,
      "raan_deg": 335.6376,
      "arg_perigee_deg": 274.2262,
      "mean_anomaly_deg": 85.8415,
      "mean_motion_rev_day": 15.70865105
    }
  ]
}